[Satellite]
VERSION=1.1
NAME=ScatSat
NICKNAME=ScatSat
TLE1=1 41790U 16059H   19311.71578252  .00000011  00000-0  13702-4 0  9993
TLE2=2 41790  98.1931 353.2571 0004274 243.5067 116.5685 14.50893088164924
STATUS=0
